[{"OBJECT_NAME":"STARLINK-34952","OBJECT_ID":"2025-175Z","EPOCH":"2026-03-09T14:51:23.690880","MEAN_MOTION":15.05637468,"ECCENTRICITY":0.0002358,"INCLINATION":97.6018,"RA_OF_ASC_NODE":302.6484,"ARG_OF_PERICENTER":68.2368,"MEAN_ANOMALY":291.9109,"EPHEMERIS_TYPE":0,"CLASSIFICATION_TYPE":"U","NORAD_CAT_ID":65197,"ELEMENT_SET_NO":999,"REV_AT_EPOCH":3263,"BSTAR":0.00046386,"MEAN_MOTION_DOT":6.637e-5,"MEAN_MOTION_DDOT":0},{"OBJECT_NAME":"COSMOS 2251 DEB","OBJECT_ID":"1993-036AXJ","EPOCH":"2026-03-07T16:14:39.475392","MEAN_MOTION":15.02350149,"ECCENTRICITY":0.00052276,"INCLINATION":74.0329,"RA_OF_ASC_NODE":161.7612,"ARG_OF_PERICENTER":248.7206,"MEAN_ANOMALY":111.3424,"EPHEMERIS_TYPE":0,"CLASSIFICATION_TYPE":"U","NORAD_CAT_ID":36047,"ELEMENT_SET_NO":999,"REV_AT_EPOCH":67212,"BSTAR":0.0041103158,"MEAN_MOTION_DOT":0.00054783,"MEAN_MOTION_DDOT":0}]
